P/2016 S1 (PANSTARRS),e,94.7368,227.6692,273.2351,8.274038,0.0414121,0.71069884,96.0169,07/23.0/2023,2000,g 12.0,4.0
# From MPC106345
P/2016 WM48 (Lemmon),e,117.6103,59.9439,36.1583,8.171112,0.0421971,0.78352509,98.7449,07/23.0/2023,2000,g 15.0,4.0
# From MPEC 2021-P47
C/2016 X1 (Lemmon),e,26.4624,256.3253,224.4947,1492,0.0000171,0.99493720,0.0000,04/28.1983/2019,2000,g  6.0,4.0
# From MPEC 2022-OB6
C/2017 B3 (LINEAR),e,54.1644,2.1798,284.8342,42278,0.0000001,0.99990701,0.0000,01/31.9154/2019,2000,g  6.0,4.0
# From MPC103847
P/2017 B4 (PANSTARRS),e,20.0584,121.4578,11.0197,4.410520,0.1064068,0.36495152,359.9130,01/05.0/2017,2000,g 14.5,4.0
# From MPEC 2022-OB6
P/2017 D1 (Fuls),e,20.7701,82.1944,7.9589,4.826875,0.0929405,0.43725195,240.2766,07/23.0/2023,2000,g 14.0,4.0
# From MPEC 2022-OB6
P/2017 D4 (PANSTARRS),e,10.5555,264.9517,212.0981,7.546231,0.0475454,0.62938782,119.3866,07/23.0/2023,2000,g 13.0,4.0
# From MPC104794
P/2017 G1 (PANSTARRS),e,4.7866,249.6936,224.3156,7.273252,0.0502471,0.65415599,132.7417,07/23.0/2023,2000,g 13.5,4.0
# From MPC108595
P/2017 G2 (PANSTARRS),e,47.9645,79.8652,105.3533,8.047355,0.0431742,0.64766578,96.4979,07/23.0/2023,2000,g 13.0,4.0
# From MPEC 2023-J95
C/2017 K2 (PANSTARRS),h,12/19.6876/2022,87.5640,88.2353,236.2048,1.000706,1.796989,2000,1.5,4.0
# From MPEC 2021-N06
P/2017 K3 (Gasparovic),e,4.2736,354.3039,253.3787,5.584996,0.0746741,0.57894922,167.9004,07/23.0/2023,2000,g 14.5,4.0
# From MPEC 2021-P47
C/2017 K5 (PANSTARRS),h,03/27.2138/2020,82.2642,102.4019,172.0634,1.004883,7.684228,2000,5.0,4.0
# From MPEC 2022-OB6
C/2017 M4 (ATLAS),h,01/17.9565/2019,105.6321,65.9943,167.5766,1.001065,3.249083,2000,6.0,4.0
# From MPC118841
C/2017 M5 (TOTAS),h,06/03.5945/2018,15.8591,216.2878,92.8874,1.004549,6.008946,2000,6.5,4.0
# From MPC114599
P/2017 P1 (PANSTARRS),e,7.6885,221.3548,122.8261,7.916863,0.0442460,0.31052992,82.1167,07/23.0/2023,2000,g 10.0,4.0
# From MPC114599
C/2017 S3 (PANSTARRS),h,08/16.9705/2018,99.1582,171.2157,255.7585,1.000096,0.203847,2000,12.9,4.0
# From MPEC 2022-OB6
P/2017 S8 (PANSTARRS),e,29.8483,191.5191,254.8716,2.778578,0.2127993,0.39089939,66.1284,07/23.0/2023,2000,g 16.0,4.0
# From MPEC 2022-YN2
C/2017 T2 (PANSTARRS),e,57.2775,64.4298,92.8867,1511,0.0000168,0.99893348,0.0000,05/04.9095/2020,2000,g  5.0,4.0
# From MPC114600
C/2017 T3 (ATLAS),e,88.2875,230.2555,246.7795,1309,0.0000208,0.99937211,0.0000,07/19.5950/2018,2000,g 10.0,4.0
# From MPC115882
P/2017 TW13 (Lemmon),e,44.8522,322.2252,119.9250,7.134960,0.0517150,0.71050022,96.0194,07/23.0/2023,2000,g 15.0,2.0
# From MPEC 2022-K19
P/2017 U3 (PANSTARRS),e,15.9178,165.1003,296.2231,4.923530,0.0902172,0.09993863,140.9968,07/23.0/2023,2000,g 11.0,4.0
# From MPEC 2023-CD7
C/2017 U4 (PANSTARRS),e,158.2002,245.9024,158.9871,6820,0.0000017,0.99886698,0.0000,09/21.2953/2018,2000,g  7.0,4.0
# From MPEC 2023-A50
C/2017 U7 (PANSTARRS),h,09/15.6134/2019,142.6212,276.2799,326.4489,1.002080,6.428398,2000,8.3,2.0
# From MPC114601
P/2017 W3 (Gibbs),e,18.1703,210.1833,327.7983,7.828250,0.0449994,0.50631552,88.7723,07/23.0/2023,2000,g 10.5,4.0
# From MPEC 2021-R75
C/2017 X1 (PANSTARRS),e,31.3457,251.1673,283.0821,30.96516,0.0057200,0.84949705,10.6686,07/23.0/2023,2000,g 10.0,4.0
# From MPEC 2022-QD9
C/2017 Y2 (PANSTARRS),h,11/05.1282/2020,128.4425,66.0210,147.9302,1.001541,4.631685,2000,15.0,4.0
# From MPC111770
P/2017 Y3 (Leonard),e,27.5740,153.8784,67.5438,9.814595,0.0320550,0.86935335,63.8271,07/23.0/2023,2000,g 16.5,4.0
# From MPEC 2021-P47
C/2018 A3 (ATLAS),e,139.5438,194.2977,86.3624,355.4332,0.0001471,0.99076982,0.0000,01/10.3447/2019,2000,g  8.5,4.0
# From MPEC 2023-J29
C/2018 A4 (PANSTARRS),e,3.1515,97.5666,355.9575,12.18702,0.0231664,0.80407504,43.7845,07/23.0/2023,2000,g 14.0,4.0
# From MPC109147
P/2018 A5 (PANSTARRS),e,23.6183,87.7873,359.4893,5.627354,0.0738325,0.52373249,157.0393,07/23.0/2023,2000,g 15.0,4.0
# From MPEC 2022-ST7
C/2018 A6 (Gibbs),e,77.0731,340.3901,264.3361,15.03231,0.0169108,0.79921106,24.9075,07/23.0/2023,2000,g  9.0,4.0
# From MPC114601
P/2018 C1 (Lemmon-Read),e,5.1093,270.3120,235.7013,5.651963,0.0733508,0.53206937,144.9300,07/23.0/2023,2000,g 13.5,4.0
# From MPC114601
C/2018 C2 (Lemmon),e,34.4630,91.2959,133.9507,8402,0.0000013,0.99976674,0.0000,05/30.9026/2018,2000,g 13.0,4.0
# From MPEC 2022-M88
C/2018 DO4 (Lemmon),e,160.4434,251.4328,176.3207,25.33651,0.0077283,0.90467462,11.1005,07/23.0/2023,2000,g 11.0,4.0
# From MPC114602
C/2018 E1 (ATLAS),e,72.4917,146.8033,299.2764,53.88780,0.0024915,0.95007906,4.7877,07/23.0/2023,2000,g 10.5,4.0
# From MPC114602
C/2018 EN4 (NEOWISE),e,81.9732,136.1313,35.0062,17.89175,0.0130234,0.91835218,24.4483,07/23.0/2023,2000,g 15.0,4.0
# From MPEC 2023-CD7
C/2018 EF9 (Lemmon),e,84.6458,172.5737,72.6390,438.2435,0.0001074,0.99643306,0.0000,05/20.6492/2018,2000,g 18.0,2.0
# From MPEC 2021-R75
C/2018 F1 (Grauer),e,46.0883,177.2792,71.5668,233.7875,0.0002757,0.98717978,0.0000,12/11.4232/2018,2000,g 11.5,4.0
# From MPEC 2023-A50
C/2018 F4 (PANSTARRS),e,78.0837,26.5154,263.2127,4158,0.0000037,0.99917153,0.0000,12/02.6689/2019,2000,g 11.0,6.0
# From MPEC 2021-Y10
C/2018 F4-A,e,78.0839,26.5156,263.2095,3908,0.0000040,0.99911856,0.0000,12/02.6571/2019,2000,g 11.0,6.0
# From MPEC 2023-D41
C/2018 F4-B,e,78.0848,26.5151,263.1953,4345,0.0000034,0.99920736,0.0000,12/02.5938/2019,2000,g 11.0,6.0
# From MPC114602
P/2018 H2 (PANSTARRS),e,7.4464,67.6362,120.0931,4.387305,0.1072525,0.54192976,216.7182,07/23.0/2023,2000,g 16.6,2.0
# From MPEC 2021-R75
C/2018 KJ3 (Lemmon),e,136.6590,91.6668,217.6451,907.5645,0.0000360,0.99600590,0.0000,09/09.9351/2019,2000,g 12.2,2.0
# From MPC114602
P/2018 L1 (PANSTARRS),e,10.5771,268.6037,18.0301,3.654561,0.1410754,0.48156446,241.9447,07/23.0/2023,2000,g 15.0,4.0
# From MPEC 2021-P47
C/2018 L2 (ATLAS),e,67.2308,242.9932,56.3380,253.4474,0.0002443,0.99322373,0.0000,12/01.7997/2018,2000,g 10.0,4.0
# From MPC114603
P/2018 L4 (PANSTARRS),e,26.6115,145.1894,140.6035,4.946231,0.0895968,0.65875252,162.9702,07/23.0/2023,2000,g 17.5,4.0
# From MPC119996
P/2018 L5 (Leonard),e,2.2091,219.0330,93.9651,3.629133,0.1425607,0.36406496,271.4948,07/23.0/2023,2000,g 14.5,4.0
# From MPC117070
C/2018 M1 (Catalina),e,37.2607,339.4291,14.2649,21.52699,0.0098680,0.93927335,18.1386,07/23.0/2023,2000,g 15.5,4.0
# From MPEC 2022-M21
C/2018 N1 (NEOWISE),e,159.3953,292.5750,354.7444,517.6110,0.0000837,0.99747474,0.0000,08/03.2626/2018,2000,g 15.5,4.0
# From MPEC 2022-YN2
C/2018 N2 (ASASSN),h,11/11.5321/2019,77.5557,25.2024,24.5138,1.001217,3.129185,2000,6.0,4.0
# From MPC114603
C/2018 O1 (ATLAS),e,153.9869,87.8242,162.7160,28.08856,0.0066208,0.94461210,11.8189,07/23.0/2023,2000,g 17.0,4.0
# From MPEC 2023-J29
P/2018 P3 (PANSTARRS),e,8.9148,59.1603,306.0059,3.003740,0.1893261,0.41713319,330.3262,07/23.0/2023,2000,g 14.5,4.0
# From MPC114603
P/2018 P4 (PANSTARRS),e,23.1049,353.0703,8.4791,6.687413,0.0569924,0.45038765,97.8449,07/23.0/2023,2000,g 12.0,4.0
# From MPEC 2021-P47
C/2018 P5 (PANSTARRS),e,7.2464,216.1896,132.0232,12.84968,0.0213976,0.64277272,34.3633,07/23.0/2023,2000,g 11.0,4.0
# From MPC118841
C/2018 R3 (Lemmon),e,69.7044,324.5478,112.7419,1594,0.0000155,0.99919555,0.0000,06/07.9530/2019,2000,g  9.5,4.0
# From MPC114603
C/2018 R5 (Lemmon),e,103.7418,171.1308,178.2444,22.92926,0.0089767,0.84148500,14.8528,07/23.0/2023,2000,g 11.5,4.0
# From MPEC 2022-QC6
C/2018 S2 (TESS),e,64.1396,85.0905,290.8469,14.36378,0.0181051,0.61871706,31.1274,07/23.0/2023,2000,g  7.5,4.0
# From MPEC 2023-N01
C/2018 U1 (Lemmon),h,11/03.0709/2021,108.3207,75.4983,180.4666,1.001427,4.992435,2000,5.0,4.0
# From MPC114604
C/2018 V1 (Machholz-Fujikawa-Iwamoto),h,12/02.8861/2018,144.1176,129.1664,89.2133,1.000377,0.391185,2000,12.0,4.0
# From MPC115884
C/2018 V2 (ATLAS),e,159.1674,357.0919,319.0714,25.10034,0.0078376,0.90089051,13.3294,07/23.0/2023,2000,g 15.0,4.0
# From MPEC 2023-CD7
P/2018 VN2 (Leonard),e,18.2588,226.4428,138.9002,4.061922,0.1203945,0.47865331,225.2640,07/23.0/2023,2000,g 15.0,4.0
# From MPEC 2022-VC5
A/2018 V3,e,164.9553,308.7236,3.6151,128.1462,0.0006794,0.98954807,0.0000,09/09.4789/2019,2000,g 15.7,2.0
# From MPEC 2022-M21
C/2018 V4 (Africano),e,69.0368,78.2593,359.9709,203.4340,0.0003397,0.98429055,0.0000,03/01.6595/2019,2000,g 12.5,4.0
# From MPEC 2021-P47
P/2018 V5 (Trujillo-Sheppard),e,10.5874,171.2839,260.6985,8.964281,0.0367224,0.47575368,64.3619,07/23.0/2023,2000,g 12.5,4.0
# From MPEC 2021-P47
C/2018 W1 (Catalina),e,83.3947,233.6747,251.1943,21.69463,0.0097538,0.93742527,14.9507,07/23.0/2023,2000,g 15.5,2.0
# From MPEC 2021-P47
C/2018 W2 (Africano),h,09/05.3046/2019,116.6193,181.8319,158.1089,1.000670,1.462583,2000,9.5,4.0
# From MPEC 2023-M14
A/2018 W3,e,104.8267,251.6777,313.9597,711.1164,0.0000520,0.99396718,0.0000,04/13.0682/2021,2000,g 10.7,2.0
# From MPC119996
C/2018 X2 (Fitzsimmons),e,23.0760,340.7869,161.9400,139.1916,0.0006002,0.98477906,0.0000,07/08.4021/2019,2000,g 12.0,4.0
# From MPC114604
C/2018 X3 (PANSTARRS),e,43.4204,78.8104,359.7651,12.37988,0.0226271,0.78264475,37.6644,07/23.0/2023,2000,g 14.5,4.0
# From MPEC 2023-HD1
C/2018 Y1 (Iwamoto),e,160.4196,147.4646,357.8944,128.9626,0.0006730,0.99004029,0.0000,02/05.4874/2019,2000,g  9.0,4.0
# From MPC114605
P/2018 Y2 (Africano),e,11.6858,297.1874,162.2516,7.453175,0.0484387,0.47944786,80.5433,07/23.0/2023,2000,g 11.5,4.0
# From MPC114605
P/2019 A1 (PANSTARRS),e,13.7550,312.2498,150.7149,5.115522,0.0851862,0.56938921,148.6930,07/23.0/2023,2000,g 16.0,4.0
# From MPEC 2021-P47
P/2019 A2 (ATLAS),e,14.8623,139.4349,323.8506,5.713031,0.0721779,0.38239772,123.0668,07/23.0/2023,2000,g 10.5,4.0
# From MPEC 2022-M21
P/2019 A3 (PANSTARRS),e,15.3751,31.2939,325.6877,3.143879,0.1768094,0.26608216,320.4663,07/23.0/2023,2000,g 16.0,4.0
# From MPEC 2022-L66
P/2019 A4 (PANSTARRS),e,13.3059,119.2428,343.0587,2.613651,0.2332560,0.08716167,33.0153,07/23.0/2023,2000,g 15.0,4.0
# From MPEC 2021-P47
C/2019 A5 (PANSTARRS),e,67.5505,146.5956,355.7874,21.48111,0.0098996,0.70610099,14.9238,07/23.0/2023,2000,g  9.5,4.0
